{
"type": "FeatureCollection",
"name": "Borehole",
"crs": { "type": "name", "properties": { "name": "urn:ogc:def:crs:EPSG::3857" } },
"features": [
{ "type": "Feature", "properties": { "gml_id": "Borehole.3347748", "identifier": "http://inspire.pgi.gov.pl/so/ge/CBDG.otworySzczelinowanie/Borehole.3347748", "localId": "Borehole.3347748", "namespace": "http://inspire.pgi.gov.pl/so/ge/CBDG.otworySzczelinowanie", "downholeGeometry": null, "value": 4468.0, "elevation": 33.55, "logElement": null }, "geometry": { "type": "Point", "coordinates": [ 1998630.751981, 7318362.443881000392139 ] } },
{ "type": "Feature", "properties": { "gml_id": "Borehole.3193212", "identifier": "http://inspire.pgi.gov.pl/so/ge/CBDG.otworySzczelinowanie/Borehole.3193212", "localId": "Borehole.3193212", "namespace": "http://inspire.pgi.gov.pl/so/ge/CBDG.otworySzczelinowanie", "downholeGeometry": null, "value": 3051.0, "elevation": 102.54, "logElement": null }, "geometry": { "type": "Point", "coordinates": [ 2020042.010147, 7307709.326097000390291 ] } },
{ "type": "Feature", "properties": { "gml_id": "Borehole.3193392", "identifier": "http://inspire.pgi.gov.pl/so/ge/CBDG.otworySzczelinowanie/Borehole.3193392", "localId": "Borehole.3193392", "namespace": "http://inspire.pgi.gov.pl/so/ge/CBDG.otworySzczelinowanie", "downholeGeometry": null, "value": 4501.0, "elevation": 167.5, "logElement": null }, "geometry": { "type": "Point", "coordinates": [ 2426136.49348200019449, 6697983.815944000147283 ] } },
{ "type": "Feature", "properties": { "gml_id": "Borehole.3211561", "identifier": "http://inspire.pgi.gov.pl/so/ge/CBDG.otworySzczelinowanie/Borehole.3211561", "localId": "Borehole.3211561", "namespace": "http://inspire.pgi.gov.pl/so/ge/CBDG.otworySzczelinowanie", "downholeGeometry": null, "value": 3201.0, "elevation": 236.45, "logElement": null }, "geometry": { "type": "Point", "coordinates": [ 2574095.310345999896526, 6574942.832244000397623 ] } },
{ "type": "Feature", "properties": { "gml_id": "Borehole.3209637", "identifier": "http://inspire.pgi.gov.pl/so/ge/CBDG.otworySzczelinowanie/Borehole.3209637", "localId": "Borehole.3209637", "namespace": "http://inspire.pgi.gov.pl/so/ge/CBDG.otworySzczelinowanie", "downholeGeometry": null, "value": 2819.0, "elevation": 2.42, "logElement": null }, "geometry": { "type": "Point", "coordinates": [ 2025639.404197, 7323722.936855000443757 ] } },
{ "type": "Feature", "properties": { "gml_id": "Borehole.3211651", "identifier": "http://inspire.pgi.gov.pl/so/ge/CBDG.otworySzczelinowanie/Borehole.3211651", "localId": "Borehole.3211651", "namespace": "http://inspire.pgi.gov.pl/so/ge/CBDG.otworySzczelinowanie", "downholeGeometry": null, "value": 3815.0, "elevation": 215.5, "logElement": null }, "geometry": { "type": "Point", "coordinates": [ 2608068.268441999796778, 6612797.771863999776542 ] } },
{ "type": "Feature", "properties": { "gml_id": "Borehole.3211741", "identifier": "http://inspire.pgi.gov.pl/so/ge/CBDG.otworySzczelinowanie/Borehole.3211741", "localId": "Borehole.3211741", "namespace": "http://inspire.pgi.gov.pl/so/ge/CBDG.otworySzczelinowanie", "downholeGeometry": null, "value": 3515.5, "elevation": null, "logElement": null }, "geometry": { "type": "Point", "coordinates": [ 2175646.809824999887496, 7071881.385389000177383 ] } },
{ "type": "Feature", "properties": { "gml_id": "Borehole.3211746", "identifier": "http://inspire.pgi.gov.pl/so/ge/CBDG.otworySzczelinowanie/Borehole.3211746", "localId": "Borehole.3211746", "namespace": "http://inspire.pgi.gov.pl/so/ge/CBDG.otworySzczelinowanie", "downholeGeometry": null, "value": 3027.7, "elevation": null, "logElement": null }, "geometry": { "type": "Point", "coordinates": [ 2581498.993509000167251, 6683518.973120000213385 ] } },
{ "type": "Feature", "properties": { "gml_id": "Borehole.3211911", "identifier": "http://inspire.pgi.gov.pl/so/ge/CBDG.otworySzczelinowanie/Borehole.3211911", "localId": "Borehole.3211911", "namespace": "http://inspire.pgi.gov.pl/so/ge/CBDG.otworySzczelinowanie", "downholeGeometry": null, "value": 2225.0, "elevation": 105.39, "logElement": null }, "geometry": { "type": "Point", "coordinates": [ 2266936.60054299980402, 7201453.151107000187039 ] } },
{ "type": "Feature", "properties": { "gml_id": "Borehole.3212040", "identifier": "http://inspire.pgi.gov.pl/so/ge/CBDG.otworySzczelinowanie/Borehole.3212040", "localId": "Borehole.3212040", "namespace": "http://inspire.pgi.gov.pl/so/ge/CBDG.otworySzczelinowanie", "downholeGeometry": null, "value": 3520.0, "elevation": null, "logElement": null }, "geometry": { "type": "Point", "coordinates": [ 1833936.040252, 6749452.699227999895811 ] } },
{ "type": "Feature", "properties": { "gml_id": "Borehole.3211105", "identifier": "http://inspire.pgi.gov.pl/so/ge/CBDG.otworySzczelinowanie/Borehole.3211105", "localId": "Borehole.3211105", "namespace": "http://inspire.pgi.gov.pl/so/ge/CBDG.otworySzczelinowanie", "downholeGeometry": null, "value": 1547.0, "elevation": 73.5, "logElement": null }, "geometry": { "type": "Point", "coordinates": [ 2378729.89028500020504, 7207093.427585000172257 ] } },
{ "type": "Feature", "properties": { "gml_id": "Borehole.3212383", "identifier": "http://inspire.pgi.gov.pl/so/ge/CBDG.otworySzczelinowanie/Borehole.3212383", "localId": "Borehole.3212383", "namespace": "http://inspire.pgi.gov.pl/so/ge/CBDG.otworySzczelinowanie", "downholeGeometry": null, "value": 6058.0, "elevation": null, "logElement": null }, "geometry": { "type": "Point", "coordinates": [ 1994110.405185, 7214579.555293000303209 ] } },
{ "type": "Feature", "properties": { "gml_id": "Borehole.3212435", "identifier": "http://inspire.pgi.gov.pl/so/ge/CBDG.otworySzczelinowanie/Borehole.3212435", "localId": "Borehole.3212435", "namespace": "http://inspire.pgi.gov.pl/so/ge/CBDG.otworySzczelinowanie", "downholeGeometry": null, "value": 3242.0, "elevation": 101.59, "logElement": null }, "geometry": { "type": "Point", "coordinates": [ 1975594.282837, 7305485.022629000246525 ] } },
{ "type": "Feature", "properties": { "gml_id": "Borehole.3212439", "identifier": "http://inspire.pgi.gov.pl/so/ge/CBDG.otworySzczelinowanie/Borehole.3212439", "localId": "Borehole.3212439", "namespace": "http://inspire.pgi.gov.pl/so/ge/CBDG.otworySzczelinowanie", "downholeGeometry": null, "value": 4071.0, "elevation": 77.0, "logElement": null }, "geometry": { "type": "Point", "coordinates": [ 1978153.149711, 7291941.726719999685884 ] } },
{ "type": "Feature", "properties": { "gml_id": "Borehole.3212440", "identifier": "http://inspire.pgi.gov.pl/so/ge/CBDG.otworySzczelinowanie/Borehole.3212440", "localId": "Borehole.3212440", "namespace": "http://inspire.pgi.gov.pl/so/ge/CBDG.otworySzczelinowanie", "downholeGeometry": null, "value": 3083.0, "elevation": 77.0, "logElement": null }, "geometry": { "type": "Point", "coordinates": [ 1978158.35260000010021, 7291921.429871999658644 ] } },
{ "type": "Feature", "properties": { "gml_id": "Borehole.3212441", "identifier": "http://inspire.pgi.gov.pl/so/ge/CBDG.otworySzczelinowanie/Borehole.3212441", "localId": "Borehole.3212441", "namespace": "http://inspire.pgi.gov.pl/so/ge/CBDG.otworySzczelinowanie", "downholeGeometry": null, "value": 4484.0, "elevation": 50.53, "logElement": null }, "geometry": { "type": "Point", "coordinates": [ 1935629.487662000115961, 7283977.572641000151634 ] } },
{ "type": "Feature", "properties": { "gml_id": "Borehole.3212471", "identifier": "http://inspire.pgi.gov.pl/so/ge/CBDG.otworySzczelinowanie/Borehole.3212471", "localId": "Borehole.3212471", "namespace": "http://inspire.pgi.gov.pl/so/ge/CBDG.otworySzczelinowanie", "downholeGeometry": null, "value": 3436.0, "elevation": 77.0, "logElement": null }, "geometry": { "type": "Point", "coordinates": [ 2075858.955484, 7209932.298802999779582 ] } },
{ "type": "Feature", "properties": { "gml_id": "Borehole.3212475", "identifier": "http://inspire.pgi.gov.pl/so/ge/CBDG.otworySzczelinowanie/Borehole.3212475", "localId": "Borehole.3212475", "namespace": "http://inspire.pgi.gov.pl/so/ge/CBDG.otworySzczelinowanie", "downholeGeometry": null, "value": 3590.0, "elevation": 96.7, "logElement": null }, "geometry": { "type": "Point", "coordinates": [ 1950666.925788, 7257022.25942699983716 ] } },
{ "type": "Feature", "properties": { "gml_id": "Borehole.3212489", "identifier": "http://inspire.pgi.gov.pl/so/ge/CBDG.otworySzczelinowanie/Borehole.3212489", "localId": "Borehole.3212489", "namespace": "http://inspire.pgi.gov.pl/so/ge/CBDG.otworySzczelinowanie", "downholeGeometry": null, "value": 5540.0, "elevation": 163.16, "logElement": null }, "geometry": { "type": "Point", "coordinates": [ 2037815.936869, 7188020.994916999712586 ] } },
{ "type": "Feature", "properties": { "gml_id": "Borehole.3234932", "identifier": "http://inspire.pgi.gov.pl/so/ge/CBDG.otworySzczelinowanie/Borehole.3234932", "localId": "Borehole.3234932", "namespace": "http://inspire.pgi.gov.pl/so/ge/CBDG.otworySzczelinowanie", "downholeGeometry": null, "value": 3847.5, "elevation": 150.0, "logElement": null }, "geometry": { "type": "Point", "coordinates": [ 2399514.71748000010848, 6820921.784335000440478 ] } },
{ "type": "Feature", "properties": { "gml_id": "Borehole.3250124", "identifier": "http://inspire.pgi.gov.pl/so/ge/CBDG.otworySzczelinowanie/Borehole.3250124", "localId": "Borehole.3250124", "namespace": "http://inspire.pgi.gov.pl/so/ge/CBDG.otworySzczelinowanie", "downholeGeometry": null, "value": 3807.0, "elevation": 206.0, "logElement": null }, "geometry": { "type": "Point", "coordinates": [ 2585489.180902, 6630492.163599999621511 ] } },
{ "type": "Feature", "properties": { "gml_id": "Borehole.3259989", "identifier": "http://inspire.pgi.gov.pl/so/ge/CBDG.otworySzczelinowanie/Borehole.3259989", "localId": "Borehole.3259989", "namespace": "http://inspire.pgi.gov.pl/so/ge/CBDG.otworySzczelinowanie", "downholeGeometry": null, "value": 2525.0, "elevation": 182.1, "logElement": null }, "geometry": { "type": "Point", "coordinates": [ 2586631.754712, 6673163.961415000259876 ] } },
{ "type": "Feature", "properties": { "gml_id": "Borehole.3247244", "identifier": "http://inspire.pgi.gov.pl/so/ge/CBDG.otworySzczelinowanie/Borehole.3247244", "localId": "Borehole.3247244", "namespace": "http://inspire.pgi.gov.pl/so/ge/CBDG.otworySzczelinowanie", "downholeGeometry": null, "value": 3070.0, "elevation": 96.47, "logElement": null }, "geometry": { "type": "Point", "coordinates": [ 2008170.408846, 7304712.967864000238478 ] } },
{ "type": "Feature", "properties": { "gml_id": "Borehole.3211720", "identifier": "http://inspire.pgi.gov.pl/so/ge/CBDG.otworySzczelinowanie/Borehole.3211720", "localId": "Borehole.3211720", "namespace": "http://inspire.pgi.gov.pl/so/ge/CBDG.otworySzczelinowanie", "downholeGeometry": null, "value": 3713.2, "elevation": null, "logElement": null }, "geometry": { "type": "Point", "coordinates": [ 2133897.855808999855071, 7111584.914676000364125 ] } },
{ "type": "Feature", "properties": { "gml_id": "Borehole.3209634", "identifier": "http://inspire.pgi.gov.pl/so/ge/CBDG.otworySzczelinowanie/Borehole.3209634", "localId": "Borehole.3209634", "namespace": "http://inspire.pgi.gov.pl/so/ge/CBDG.otworySzczelinowanie", "downholeGeometry": null, "value": 3490.0, "elevation": 54.5, "logElement": null }, "geometry": { "type": "Point", "coordinates": [ 2156509.511491000186652, 7147272.203347999602556 ] } },
{ "type": "Feature", "properties": { "gml_id": "Borehole.3211700", "identifier": "http://inspire.pgi.gov.pl/so/ge/CBDG.otworySzczelinowanie/Borehole.3211700", "localId": "Borehole.3211700", "namespace": "http://inspire.pgi.gov.pl/so/ge/CBDG.otworySzczelinowanie", "downholeGeometry": null, "value": 4276.81, "elevation": null, "logElement": null }, "geometry": { "type": "Point", "coordinates": [ 2198187.549521999899298, 6991933.304285 ] } },
{ "type": "Feature", "properties": { "gml_id": "Borehole.3260718", "identifier": "http://inspire.pgi.gov.pl/so/ge/CBDG.otworySzczelinowanie/Borehole.3260718", "localId": "Borehole.3260718", "namespace": "http://inspire.pgi.gov.pl/so/ge/CBDG.otworySzczelinowanie", "downholeGeometry": null, "value": 5058.0, "elevation": 163.33, "logElement": null }, "geometry": { "type": "Point", "coordinates": [ 2037807.300648, 7187997.0347960004583 ] } },
{ "type": "Feature", "properties": { "gml_id": "Borehole.3280327", "identifier": "http://inspire.pgi.gov.pl/so/ge/CBDG.otworySzczelinowanie/Borehole.3280327", "localId": "Borehole.3280327", "namespace": "http://inspire.pgi.gov.pl/so/ge/CBDG.otworySzczelinowanie", "downholeGeometry": null, "value": 3981.0, "elevation": 100.64, "logElement": null }, "geometry": { "type": "Point", "coordinates": [ 2020119.330892999889329, 7307700.010882999747992 ] } },
{ "type": "Feature", "properties": { "gml_id": "Borehole.3231258", "identifier": "http://inspire.pgi.gov.pl/so/ge/CBDG.otworySzczelinowanie/Borehole.3231258", "localId": "Borehole.3231258", "namespace": "http://inspire.pgi.gov.pl/so/ge/CBDG.otworySzczelinowanie", "downholeGeometry": null, "value": 2780.0, "elevation": 7.0, "logElement": null }, "geometry": { "type": "Point", "coordinates": [ 2211107.882598999887705, 7245440.903004 ] } },
{ "type": "Feature", "properties": { "gml_id": "Borehole.3261375", "identifier": "http://inspire.pgi.gov.pl/so/ge/CBDG.otworySzczelinowanie/Borehole.3261375", "localId": "Borehole.3261375", "namespace": "http://inspire.pgi.gov.pl/so/ge/CBDG.otworySzczelinowanie", "downholeGeometry": null, "value": 3600.38, "elevation": 182.0, "logElement": null }, "geometry": { "type": "Point", "coordinates": [ 2014487.603268, 7254384.412281 ] } },
{ "type": "Feature", "properties": { "gml_id": "Borehole.3209630", "identifier": "http://inspire.pgi.gov.pl/so/ge/CBDG.otworySzczelinowanie/Borehole.3209630", "localId": "Borehole.3209630", "namespace": "http://inspire.pgi.gov.pl/so/ge/CBDG.otworySzczelinowanie", "downholeGeometry": null, "value": 4307.0, "elevation": 176.35, "logElement": null }, "geometry": { "type": "Point", "coordinates": [ 2443215.053315000142902, 6785941.485879000276327 ] } },
{ "type": "Feature", "properties": { "gml_id": "Borehole.3378303", "identifier": "http://inspire.pgi.gov.pl/so/ge/CBDG.otworySzczelinowanie/Borehole.3378303", "localId": "Borehole.3378303", "namespace": "http://inspire.pgi.gov.pl/so/ge/CBDG.otworySzczelinowanie", "downholeGeometry": null, "value": 3830.0, "elevation": 166.88, "logElement": null }, "geometry": { "type": "Point", "coordinates": [ 2531179.779005, 6713638.998704999685287 ] } }
]
}
